{
  "norad_id": 48651,
  "name": "STARLINK-2731",
  "history": [
    {
      "epoch": "2026-03-28T20:02:11.323392",
      "apogee_km": 476.03997304464883,
      "perigee_km": 474.29498465824327,
      "latitude_deg": 23.153007605213126,
      "longitude_deg": -154.7540851200465,
      "semi_major_axis_km": 6853.304478851445,
      "eccentricity": 0.00012731,
      "inclination_deg": 53.163,
      "raan_deg": 24.9574,
      "arg_perigee_deg": 96.3619,
      "mean_anomaly_deg": 263.7527,
      "mean_motion_rev_day": 15.30215939
    },
    {
      "epoch": "2026-03-29T02:18:23.249952",
      "apogee_km": 476.0299339157391,
      "perigee_km": 474.26863934007633,
      "latitude_deg": -52.98504509742804,
      "longitude_deg": -129.67416671989486,
      "semi_major_axis_km": 6853.286286627907,
      "eccentricity": 0.0001285,
      "inclination_deg": 53.1628,
      "raan_deg": 23.746,
      "arg_perigee_deg": 83.0283,
      "mean_anomaly_deg": 277.0864,
      "mean_motion_rev_day": 15.30222032
    }
  ]
}